0 COSMOS 2251 DEB
1 33768U 93036R   13283.13766978  .00000184  00000-0  19072-3 0  3115
2 33768 074.0719 169.1657 0378478 231.9577 285.5502 13.54730048230189
0 COSMOS 2251 DEB
1 33768U 93036R   13284.15463207  .00000246  00000-0  24767-3 0  3124
2 33768 074.0718 167.5348 0378432 230.1017 205.3053 13.54730241230329
0 COSMOS 2251 DEB
1 33768U 93036R   13285.41805713  .00000249  00000-0  25078-3 0  3136
2 33768 074.0715 165.5088 0378392 227.7954 247.0691 13.54730438230499
0 COSMOS 2251 DEB
1 33768U 93036R   13286.73542832  .00000321  00000-0  31741-3 0  3148
2 33768 074.0712 163.3963 0378369 225.3919 191.9295 13.54730888230679
0 COSMOS 2251 DEB
1 33768U 93036R   13287.84738498  .00000330  00000-0  32500-3 0  3151
2 33768 074.0709 161.6131 0378356 223.3663 214.9743 13.54731915230826
0 COSMOS 2251 DEB
1 33768U 93036R   13289.11142075  .00000331  00000-0  32587-3 0  3160
2 33768 074.0706 159.5861 0378333 221.0593 259.7227 13.54733290230991
0 COSMOS 2251 DEB
1 33768U 93036R   13290.15257534  .00000319  00000-0  31499-3 0  3171
2 33768 074.0705 157.9165 0378300 219.1585 297.4755 13.54734210231137
0 COSMOS 2251 DEB
1 33768U 93036R   13291.17590258  .00000329  00000-0  32405-3 0  3187
2 33768 074.0704 156.2754 0378270 217.2904 248.2882 13.54734955231278
0 COSMOS 2251 DEB
1 33768U 93036R   13292.35952788  .00000371  00000-0  36338-3 0  3195
2 33768 074.0703 154.3773 0378233 215.1311 260.8841 13.54735499231432
0 COSMOS 2251 DEB
1 33768U 93036R   13293.75312861  .00000430  00000-0  41784-3 0  3201
2 33768 074.0703 152.1423 0378176 212.5887 217.5449 13.54736215231626
0 COSMOS 2251 DEB
1 33768U 93036R   13295.02855903  .00000455  00000-0  44026-3 0  3212
2 33768 074.0702 150.0969 0378139 210.2647 317.8826 13.54737211231793
0 COSMOS 2251 DEB
1 33768U 93036R   13296.12351353  .00000472  00000-0  45638-3 0  3224
2 33768 074.0701 148.3409 0378098 208.2705 258.0329 13.54738361231945
